NUVIEW ALPHA            
1 62455U 24252B   26161.18086991 -.00000198  00000+0  00000+0 0  9992
2 62455   0.0601  37.5130 0000883   6.5747 196.4908  1.00268657  3755
AGILA                   
1 62456U 24252C   26160.93586498 -.00000164  00000+0  00000+0 0  9995
2 62456   0.0575 128.6151 0000846 338.6482 280.1045  1.00271283  5085
NUVIEW BRAVO            
1 62457U 24252D   26160.43798572 -.00000198  00000+0  00000+0 0  9996
2 62457   0.0715 143.0681 0001758 340.9414 208.3699  1.00270853  3712
THURAYA-4               
1 62483U 25001A   26161.27745301  .00000157  00000+0  00000+0 0  9997
2 62483   0.0255  64.7685 0000095 188.6973 149.3726  1.00272873  4106
SHIJIAN-25 (SJ-25)      
1 62485U 25002A   26160.75069442 -.00000334  00000+0  00000+0 0  9995
2 62485   5.0946  61.2054 0052086 173.0142  61.4939  1.00272159  5282
TJS-14                  
1 62804U 25017A   26161.27225299  .00000133  00000+0  00000+0 0  9994
2 62804   0.7992 295.0975 0000816 283.8537 156.0549  1.00271702  5204
SPAINSAT NG I           
1 62852U 25021A   26161.27441966  .00000169  00000+0  00000+0 0  9992
2 62852   0.0177 341.3207 0000088 270.4510 134.6680  1.00269726  3919
QZS-6 (MICHIBIKI-6)     
1 62876U 25023A   26161.14397918 -.00000216  00000+0  00000+0 0  9997
2 62876   0.0354  58.5123 0001875  28.7523 313.5904  1.00273018  4871
ZHONGXING-10R           
1 63075U 25036A   26161.07668844 -.00000334  00000+0  00000+0 0  9995
2 63075   0.0399 249.9117 0003344 254.8974 251.7603  1.00268583  4887
TJS-15                  
1 63157U 25045A   26160.71362426 -.00000248  00000+0  00000+0 0  9997
2 63157   0.2818  85.3656 0004854 298.4036 225.5785  1.00274743  4689
TIANLIAN 2-04           
1 63361U 25062A   26159.78731568 -.00000120  00000+0  00000+0 0  9994
2 63361   4.3975 274.5597 0031487  10.5183 335.5801  1.00270193  4517
TJS-16                  
1 63397U 25064A   26160.65884535 -.00000088  00000+0  00000+0 0  9999
2 63397   1.0777  81.4975 0003519 291.2674 283.0571  1.00271840  4312
TJS-17                  
1 63524U 25073A   26160.65962536 -.00000052  00000+0  00000+0 0  9990
2 63524   1.0435  82.7569 0002270 298.7781 278.4847  1.00272079  4210
TIANLIAN 2-05           
1 63662U 25084A   26161.13011245  .00000141  00000+0  00000+0 0  9999
2 63662   4.4703 279.9150 0003340 145.2348 260.5834  1.00271020  4312
TJS-19                  
1 63924U 25097A   26160.72632251 -.00000262  00000+0  00000+0 0  9999
2 63924   3.2998 317.3056 0002139 237.1536 106.3772  1.00268609  4062
SXM-10                  
1 64290U 25122A   26161.24561490  .00000001  00000+0  00000+0 0  9999
2 64290   0.0197  23.7095 0001706 343.5755 223.5661  1.00269821  3616
COSMOS 2589             
1 64467U 25131A   26160.75508544 -.00000274  00000+0  00000+0 0  9994
2 64467   0.0483  76.4674 0001216  75.0725 116.3977  1.00271139  3487
CHINASAT 9C             
1 64470U 25132A   26161.14432586 -.00000230  00000+0  00000+0 0  9997
2 64470   0.0218 264.9201 0002715 174.1193 323.6460  1.00271502  4072
MTG-S1                  
1 64723U 25143A   26161.26791963 -.00000015  00000+0  00000+0 0  9991
2 64723   0.6096 337.3431 0000991  23.0955 351.1670  1.00271600  3353
DROR 1                  
1 64784U 25148A   26161.26783296 -.00000017  00000+0  00000+0 0  9995
2 64784   0.0140  26.1574 0002738   3.6647 321.2221  1.00271617  3222
SHIYAN-29               
1 65486U 25196A   26160.07536391 -.00000259  00000+0  00000+0 0  9996
2 65486  28.8121  18.6391 0010972 171.7452 188.2752  1.00256520  2799
NUSANTARA LIMA (NUSANT*)
1 65588U 25205A   26161.29102255 -.00000340  00000+0  00000+0 0  9994
2 65588   0.0480 133.7912 0000192 352.9611 349.5295  1.00270192  2653
TJS-20                  
1 66142U 25238A   26160.99577801  .00000039  00000+0  00000+0 0  9990
2 66142   5.4867 299.5783 0004653 158.6065 221.0517  1.00273056  2265
CMS-03 (GSAT-7R)        
1 66311U 25249B   26161.19608395 -.00000059  00000+0  00000+0 0  9999
2 66311   0.0201 265.0057 0001693 171.7226 326.4190  1.00271107  2277
VIASAT-3 F2             
1 66454U 25261A   26160.89646686 -.00000216  00000+0  00000+0 0  9997
2 66454   0.0312 151.3567 0000085 327.6411  23.0058  1.00271882  2726
SHIJIAN-28 (SJ-28)      
1 66549U 25277A   26161.29180255 -.00000342  00000+0  00000+0 0  9999
2 66549   4.5573 272.2452 0000617 351.1587 217.1483  1.00266762  2080
TJS-22                  
1 66990U 25290A   26160.89496598  .00000011  00000+0  00000+0 0  9991
2 66990   1.5457 286.4707 0001956 332.0625  28.3661  1.00272420  1959
TJS-23                  
1 67226U 25306A   26160.62257329  .00000031  00000+0  00000+0 0  9992
2 67226   5.6047 297.5297 0005199 166.6180 193.4643  1.00273603  1812
FENGYUN 4C              
1 67246U 25312A   26160.86719966 -.00000305  00000+0  00000+0 0  9992
2 67246   0.0328 153.2207 0000511  34.5844 155.6286  1.00271562  1700
SHIJIAN-29A (SJ-29A)    
1 67302U 25315A   26161.20302828 -.00000050  00000+0  00000+0 0  9999
2 67302   3.3789  95.2846 0003207  23.3203 286.2843  1.00269685  1549
SHIJIAN-29B (SJ-29B)    
1 67403U 25315C   26160.99794469 -.00000050  00000+0  00000+0 0  9992
2 67403   3.3773  95.2819 0003627  28.0595 207.5611  1.00269629  1611
